[Satellite]
VERSION=1.1
NAME=FLOCK 2P-1
NICKNAME=FLOCK 2P-1
TLE1=1 41617U 16040U   18020.92263222  .00002489  00000-0  10617-3 0  9990
TLE2=2 41617  97.4368  87.1954 0011425  46.9108 313.3084 15.23813118 87812
